{ "type": "FeatureCollection", "features": [{"type":"Feature","geometry":{"type":"MultiPolygon","coordinates":[[[[-73.9899029597005,40.73443479013707],[-73.98987421212178,40.73428455726339],[-73.98985463157418,40.734133473635026],[-73.98984425991894,40.73398186273539],[-73.98984311917769,40.7338300493733],[-73.98985121183952,40.73367835838743],[-73.98986852051472,40.733527114554995],[-73.99003455647767,40.7327541513741],[-73.99010225655749,40.73244537234051],[-73.99011350142582,40.73240050534898],[-73.99021190884345,40.73199633490752],[-73.99039009870532,40.73128852433012],[-73.9905055844942,40.730564957742956],[-73.99072530255718,40.72987868747649],[-73.99078461514357,40.72974574833861],[-73.99097394420761,40.729195707209264],[-73.99114315146113,40.72858815765818],[-73.99122943516693,40.728072618365864],[-73.99129790628717,40.72775524906495],[-73.9912343947096,40.72772680526246],[-73.99135288829764,40.72755739856281],[-73.99138898249227,40.72749770114226],[-73.99155207512996,40.72709433722655],[-73.99156762773715,40.72703464761885],[-73.99163853343113,40.726833256277615],[-73.99179396131375,40.72639179586429],[-73.9920610841139,40.725644614334406],[-73.99221516524891,40.72523259566825],[-73.99232767870696,40.7249060983973],[-73.99257987308616,40.72420155492336],[-73.99260322198438,40.72413644968358],[-73.99267182358393,40.724160254422166],[-73.9934576903203,40.724432895683435],[-73.99417930331387,40.724692407314286],[-73.99490827256867,40.7249512302247],[-73.99532907805332,40.725083740231476],[-73.99584577426455,40.72520835398448],[-73.99677175711443,40.725431943502805],[-73.99761019459693,40.72579713910515],[-73.9983611915256,40.72616746876579],[-73.99911824651605,40.72654231308996],[-73.99991579063095,40.72693471343464],[-74.0006323912446,40.727286612660954],[-74.00139033470369,40.727660002595584],[-74.00214891366657,40.72803536650219],[-74.00242264678387,40.728175537960354],[-74.00262399528637,40.7282786424938],[-74.00272009661748,40.728322816026434],[-74.00281726484997,40.72836312980689],[-74.00278351015878,40.728435470293604],[-74.00252602956398,40.729007920329686],[-74.00220337099437,40.72965325629844],[-74.00215659160689,40.72975679045379],[-74.00168465480945,40.73058156329249],[-74.00141242386637,40.73106525649165],[-74.00095442165967,40.73170609830191],[-74.0005106621846,40.73231522422859],[-74.00006842651058,40.73292466183512],[-73.99976346863303,40.7333592335659],[-73.99956212470227,40.733612394825],[-73.99918595313538,40.73413858241086],[-73.9987144369552,40.734783860928175],[-73.99853021578028,40.73503789283323],[-73.99827418854026,40.73539113958088],[-73.99780750942062,40.736035906572496],[-73.99734132767398,40.736667889863455],[-73.99683993860414,40.73736088990093],[-73.99361688263357,40.736004491616136],[-73.99171498619222,40.735215301169255],[-73.99119899334929,40.73501236908623],[-73.99075396728541,40.734839155076365],[-73.9899029597005,40.73443479013707]]]]},"properties":{"nta2020":"MN0202","ntaname":"Greenwich Village"}},{"type":"Feature","geometry":{"type":"MultiPolygon","coordinates":[[[[-74.00915345103353,40.742496188058894],[-74.00901826553093,40.74243747858332],[-74.00889339798327,40.74238416769201],[-74.00879080522756,40.74237514422635],[-74.00869902208262,40.74236172446615],[-74.00820401746283,40.74214751879115],[-74.00779115980625,40.74197084524949],[-74.00697077724409,40.74162712766088],[-74.00544214756812,40.74098214026192],[-74.00536221941265,40.74094950402077],[-74.00512553452256,40.74085021407374],[-74.00310733752076,40.73999752106174],[-74.00252381416747,40.739752643642305],[-73.99968422973271,40.738552474318816],[-73.99683993860414,40.73736088990093],[-73.99734132767398,40.736667889863455],[-73.99780750942062,40.736035906572496],[-73.99827418854026,40.73539113958088],[-73.99853021578028,40.73503789283323],[-73.9987144369552,40.734783860928175],[-73.99918595313538,40.73413858241086],[-73.99956212470227,40.733612394825],[-73.99976346863303,40.7333592335659],[-74.00006842651058,40.73292466183512],[-74.0005106621846,40.73231522422859],[-74.00095442165967,40.73170609830191],[-74.00141242386637,40.73106525649165],[-74.00168465480945,40.73058156329249],[-74.00215659160689,40.72975679045379],[-74.00220337099437,40.72965325629844],[-74.00252602956398,40.729007920329686],[-74.00278351015878,40.728435470293604],[-74.00281726484997,40.72836312980689],[-74.0031276729681,40.72839380211483],[-74.0053136913515,40.72860449508698],[-74.0070902077075,40.728772253856114],[-74.00859271950969,40.728915277887914],[-74.00934961954432,40.72898755640063],[-74.01054872124601,40.72910068335097],[-74.01064289761028,40.728172108377805],[-74.01076791416925,40.72817395881311],[-74.01087083220061,40.728180494240135],[-74.0110047284862,40.72819323917576],[-74.01138323516679,40.728229272870024],[-74.01439069866335,40.72846304802296],[-74.01434461474166,40.72862218378165],[-74.0142192854302,40.729523427755694],[-74.01407741391151,40.730640409690636],[-74.01408693559907,40.730663172537895],[-74.01403796924798,40.73069421884407],[-74.01401552295431,40.73068283965627],[-74.01116195696476,40.730450676349214],[-74.01108971391913,40.73125256845363],[-74.01107170223513,40.7314524921764],[-74.01099350879163,40.73232041844335],[-74.0109411822674,40.733007762766924],[-74.01146083559186,40.73302841414112],[-74.01400220214607,40.73306800179563],[-74.01399957240966,40.73333227751791],[-74.01090389883285,40.73329761713975],[-74.0108984071244,40.73335120737616],[-74.01087119562877,40.73335261107384],[-74.01084459795318,40.73335720264699],[-74.0108192555359,40.73336487136374],[-74.01079577954346,40.733375432282834],[-74.01077473613176,40.73338863071354],[-74.01075663279269,40.733404148357934],[-74.01074329965175,40.7334226472959],[-74.01073424409643,40.73344258788703],[-74.01072972383811,40.73346340265207],[-74.01072986752096,40.73348449923357],[-74.01073467106033,40.73350527725348],[-74.01074399775862,40.73352514539896],[-74.01075758219493,40.733543538250444],[-74.0107750377782,40.7335599323727],[-74.01080216588863,40.73357812014516],[-74.01083296874205,40.733592528943234],[-74.01086654686934,40.733602738017005],[-74.01083284563205,40.73400709350859],[-74.01201791944403,40.73406374445656],[-74.01200124222385,40.734338400663795],[-74.01081359479102,40.73428344314517],[-74.01078798331723,40.73454829384453],[-74.0107092291038,40.735362872140335],[-74.0106429201788,40.73604869770505],[-74.01067724659342,40.73605627995698],[-74.01066986685149,40.736101931929376],[-74.01068752603769,40.73611386772294],[-74.01070404345349,40.73612918443106],[-74.01071702975841,40.73614635650898],[-74.0107261323198,40.7361649176665],[-74.01073110396335,40.736184363893884],[-74.01073180968531,40.73620416714788],[-74.01072823031869,40.73622378968992],[-74.01072046305416,40.73624269868816],[-74.0107087188013,40.73626038068585],[-74.01069377895611,40.73627594899963],[-74.01067576024602,40.736289501111344],[-74.01065512584171,40.73630068866284],[-74.01065421033879,40.736347744240916],[-74.01061910077432,40.73634539072197],[-74.01056810573449,40.73697222064525],[-74.0105158157675,40.737596064451225],[-74.0104765981442,40.73806394059523],[-74.0110870663594,40.738092749578875],[-74.01106791868261,40.73830409667688],[-74.01108874534026,40.73831752516306],[-74.0111066567485,40.73833319875537],[-74.01112123935664,40.73835075557316],[-74.01113215647038,40.73836979025461],[-74.0111391560257,40.73838986331581],[-74.0111155367333,40.73839208578539],[-74.01109173772858,40.73839218132045],[-74.01106808891194,40.738390148596615],[-74.01105426715455,40.73838794795741],[-74.01105126196646,40.73839642625337],[-74.01045432864593,40.73836450522317],[-74.01042867884634,40.73870336465894],[-74.0103930306848,40.73917429605941],[-74.01049858988299,40.739173432770585],[-74.01055473996819,40.73918623955176],[-74.01074676135302,40.739175936679786],[-74.01138798406551,40.739216055586226],[-74.01148456734612,40.7392604615891],[-74.01158045436232,40.73926453560968],[-74.01158818724899,40.73927159489523],[-74.01158715816617,40.739478869329794],[-74.01163351895192,40.7395064860663],[-74.0116279231176,40.73956247310119],[-74.01155518156285,40.73955672622748],[-74.01152745020399,40.7398737704449],[-74.01151491736535,40.73997286369896],[-74.01146073955348,40.74058421525526],[-74.01215741913097,40.740605998634024],[-74.01215372624051,40.74067425662087],[-74.01265742489994,40.74069665223196],[-74.0126592820849,40.7407476384976],[-74.01257372996915,40.740741731845056],[-74.01257372874724,40.74073525712023],[-74.01147486918863,40.74068706027121],[-74.01137438820497,40.74072394814408],[-74.01071840609642,40.740685594428285],[-74.00963145571748,40.74064536687183],[-74.00949685520361,40.740727011785665],[-74.00949154621281,40.74074270943997],[-74.00951627358202,40.740773583673665],[-74.0095184419594,40.74080572341966],[-74.00950137905859,40.74082922374594],[-74.00946293860208,40.74090233724049],[-74.00941140266131,40.74115409331305],[-74.00953902448505,40.74125115861632],[-74.00966433364141,40.74129880035866],[-74.0096192344045,40.74136361101753],[-74.01020818993538,40.74160753792842],[-74.0103835807221,40.741397854029344],[-74.01139609242074,40.741822813235274],[-74.01083987411933,40.742596734022634],[-74.01029100591911,40.74235852514237],[-74.01012563710833,40.742575831777195],[-74.00932113973238,40.74224424271675],[-74.00928105078988,40.74230524043315],[-74.00919185316725,40.742292631516925],[-74.00915345103353,40.742496188058894]],[[-74.00937125244927,40.742185150284826],[-74.0100880336451,40.74248815567386],[-74.01019827672162,40.74233375374003],[-74.0098223415751,40.74216605205829],[-74.01016559689424,40.7416723485763],[-74.00956912252538,40.741422703061644],[-74.00952151608982,40.74148560794261],[-74.00936174828301,40.7414236242446],[-74.00934576009128,40.74151041070398],[-74.00927792756082,40.74187861135889],[-74.00923779939568,40.74207162766066],[-74.00941384793754,40.742129870171],[-74.00937125244927,40.742185150284826]]]]},"properties":{"nta2020":"MN0203","ntaname":"West Village"}}], "crs" : { "type": "name", "properties": { "name": "urn:ogc:def:crs:OGC:1.3:CRS84" } } }